[{"OBJECT_NAME":"CUPID","OBJECT_ID":"2021-088E","EPOCH":"2026-03-09T16:04:42.796128","MEAN_MOTION":15.24473777,"ECCENTRICITY":0.0013746,"INCLINATION":97.3985,"RA_OF_ASC_NODE":131.0756,"ARG_OF_PERICENTER":59.9938,"MEAN_ANOMALY":300.2662,"EPHEMERIS_TYPE":0,"CLASSIFICATION_TYPE":"U","NORAD_CAT_ID":49264,"ELEMENT_SET_NO":999,"REV_AT_EPOCH":24501,"BSTAR":0.00038662302,"MEAN_MOTION_DOT":9.454e-5,"MEAN_MOTION_DDOT":0},{"OBJECT_NAME":"STARLINK-30329","OBJECT_ID":"2023-122D","EPOCH":"2026-03-09T10:09:40.039776","MEAN_MOTION":15.2674653,"ECCENTRICITY":0.00014457,"INCLINATION":43.0009,"RA_OF_ASC_NODE":94.2279,"ARG_OF_PERICENTER":260.6424,"MEAN_ANOMALY":99.4264,"EPHEMERIS_TYPE":0,"CLASSIFICATION_TYPE":"U","NORAD_CAT_ID":57635,"ELEMENT_SET_NO":999,"REV_AT_EPOCH":14216,"BSTAR":6.0950903e-5,"MEAN_MOTION_DOT":1.376e-5,"MEAN_MOTION_DDOT":0}]
